[
    {
        "Altitude(m)": 556966.7984934206,
        "Argument of Periapsis(deg)": 0.006622991110713501,
        "Eccentricity": 0.0,
        "Inclination(deg)": 53.0,
        "Latitude(deg)": 40.09231855024058,
        "Longitude(deg)": 115.1102143567754,
        "Mean Anomaly(deg)": 126.45529286757758,
        "RAAN(deg)": 74.99014336852802,
        "Satellite Name": "Starlink Shell 1 337",
        "Satellite Number": 337,
        "Semi-Major Axis(m)": 6931778.249405717,
        "Time(s)": 190
    },
    {
        "Altitude(m)": 556883.858380206,
        "Argument of Periapsis(deg)": 0.0069715695902247375,
        "Eccentricity": 0.0,
        "Inclination(deg)": 53.0,
        "Latitude(deg)": 39.701082235498724,
        "Longitude(deg)": 115.70708372023677,
        "Mean Anomaly(deg)": 127.08212407113433,
        "RAAN(deg)": 74.98962459845055,
        "Satellite Name": "Starlink Shell 1 337",
        "Satellite Number": 337,
        "Semi-Major Axis(m)": 6931778.249405717,
        "Time(s)": 200
    },
    {
        "Altitude(m)": 556800.7252340168,
        "Argument of Periapsis(deg)": 0.007320148069735974,
        "Eccentricity": 0.0,
        "Inclination(deg)": 53.0,
        "Latitude(deg)": 39.3063515265643,
        "Longitude(deg)": 116.29676222354635,
        "Mean Anomaly(deg)": 127.70895527469104,
        "RAAN(deg)": 74.98910582837307,
        "Satellite Name": "Starlink Shell 1 337",
        "Satellite Number": 337,
        "Semi-Major Axis(m)": 6931778.249405717,
        "Time(s)": 210
    },
    {
        "Altitude(m)": 556717.4532275969,
        "Argument of Periapsis(deg)": 0.007668726549247212,
        "Eccentricity": 0.0,
        "Inclination(deg)": 53.0,
        "Latitude(deg)": 38.90821240265082,
        "Longitude(deg)": 116.87936838360505,
        "Mean Anomaly(deg)": 128.33578647824774,
        "RAAN(deg)": 74.98858705829561,
        "Satellite Name": "Starlink Shell 1 337",
        "Satellite Number": 337,
        "Semi-Major Axis(m)": 6931778.249405717,
        "Time(s)": 220
    },
    {
        "Altitude(m)": 556634.0968143765,
        "Argument of Periapsis(deg)": 0.00801730502875845,
        "Eccentricity": 0.0,
        "Inclination(deg)": 53.0,
        "Latitude(deg)": 38.50674903109543,
        "Longitude(deg)": 117.45502144610296,
        "Mean Anomaly(deg)": 128.9626176818045,
        "RAAN(deg)": 74.98806828821813,
        "Satellite Name": "Starlink Shell 1 337",
        "Satellite Number": 337,
        "Semi-Major Axis(m)": 6931778.249405717,
        "Time(s)": 230
    },
    {
        "Altitude(m)": 556550.7107007417,
        "Argument of Periapsis(deg)": 0.008365883508269684,
        "Eccentricity": 0.0,
        "Inclination(deg)": 53.0,
        "Latitude(deg)": 38.102043785974224,
        "Longitude(deg)": 118.02384168526558,
        "Mean Anomaly(deg)": 129.58944888536115,
        "RAAN(deg)": 74.98754951814065,
        "Satellite Name": "Starlink Shell 1 337",
        "Satellite Number": 337,
        "Semi-Major Axis(m)": 6931778.249405717,
        "Time(s)": 240
    },
    {
        "Altitude(m)": 556467.34981813,
        "Argument of Periapsis(deg)": 0.008714461987780921,
        "Eccentricity": 0.0,
        "Inclination(deg)": 53.0,
        "Latitude(deg)": 37.694177268962214,
        "Longitude(deg)": 118.58594920531193,
        "Mean Anomaly(deg)": 130.2162800889179,
        "RAAN(deg)": 74.98703074806318,
        "Satellite Name": "Starlink Shell 1 337",
        "Satellite Number": 337,
        "Semi-Major Axis(m)": 6931778.249405717,
        "Time(s)": 250
    },
    {
        "Altitude(m)": 556384.0692950086,
        "Argument of Periapsis(deg)": 0.009063040467292158,
        "Eccentricity": 0.0,
        "Inclination(deg)": 53.0,
        "Latitude(deg)": 37.28322833219168,
        "Longitude(deg)": 119.14146426876749,
        "Mean Anomaly(deg)": 130.84311129247456,
        "RAAN(deg)": 74.98651197798571,
        "Satellite Name": "Starlink Shell 1 337",
        "Satellite Number": 337,
        "Semi-Major Axis(m)": 6931778.249405717,
        "Time(s)": 260
    },
    {
        "Altitude(m)": 556300.9244286572,
        "Argument of Periapsis(deg)": 0.009411618946803396,
        "Eccentricity": 0.0,
        "Inclination(deg)": 53.0,
        "Latitude(deg)": 36.86927410288142,
        "Longitude(deg)": 119.69050763814312,
        "Mean Anomaly(deg)": 131.4699424960313,
        "RAAN(deg)": 74.98599320790824,
        "Satellite Name": "Starlink Shell 1 337",
        "Satellite Number": 337,
        "Semi-Major Axis(m)": 6931778.249405717,
        "Time(s)": 270
    },
    {
        "Altitude(m)": 556217.9706568769,
        "Argument of Periapsis(deg)": 0.009760197426314633,
        "Eccentricity": 0.0,
        "Inclination(deg)": 53.0,
        "Latitude(deg)": 36.452390009524585,
        "Longitude(deg)": 120.23319941748714,
        "Mean Anomaly(deg)": 132.09677369958803,
        "RAAN(deg)": 74.98547443783076,
        "Satellite Name": "Starlink Shell 1 337",
        "Satellite Number": 337,
        "Semi-Major Axis(m)": 6931778.249405717,
        "Time(s)": 280
    },
    {
        "Altitude(m)": 556135.2635295416,
        "Argument of Periapsis(deg)": 0.01010877590582587,
        "Eccentricity": 0.0,
        "Inclination(deg)": 53.0,
        "Latitude(deg)": 36.03264980943361,
        "Longitude(deg)": 120.76965941894902,
        "Mean Anomaly(deg)": 132.72360490314475,
        "RAAN(deg)": 74.9849556677533,
        "Satellite Name": "Starlink Shell 1 337",
        "Satellite Number": 337,
        "Semi-Major Axis(m)": 6931778.249405717,
        "Time(s)": 290
    },
    {
        "Altitude(m)": 556052.8586800634,
        "Argument of Periapsis(deg)": 0.010457354385337106,
        "Eccentricity": 0.0,
        "Inclination(deg)": 53.0,
        "Latitude(deg)": 35.6101256174579,
        "Longitude(deg)": 121.30000754087108,
        "Mean Anomaly(deg)": 133.35043610670147,
        "RAAN(deg)": 74.98443689767582,
        "Satellite Name": "Starlink Shell 1 337",
        "Satellite Number": 337,
        "Semi-Major Axis(m)": 6931778.249405717,
        "Time(s)": 300
    },
    {
        "Altitude(m)": 555970.8117968028,
        "Argument of Periapsis(deg)": 0.010805932864848343,
        "Eccentricity": 0.0,
        "Inclination(deg)": 53.0,
        "Latitude(deg)": 35.18488793570421,
        "Longitude(deg)": 121.82436264393459,
        "Mean Anomaly(deg)": 133.97726731025816,
        "RAAN(deg)": 74.98391812759834,
        "Satellite Name": "Starlink Shell 1 337",
        "Satellite Number": 337,
        "Semi-Major Axis(m)": 6931778.249405717,
        "Time(s)": 310
    },
    {
        "Altitude(m)": 555889.1785943316,
        "Argument of Periapsis(deg)": 0.01115451134435958,
        "Eccentricity": 0.0,
        "Inclination(deg)": 53.0,
        "Latitude(deg)": 34.75700568409829,
        "Longitude(deg)": 122.34284295052431,
        "Mean Anomaly(deg)": 134.60409851381488,
        "RAAN(deg)": 74.98339935752088,
        "Satellite Name": "Starlink Shell 1 337",
        "Satellite Number": 337,
        "Semi-Major Axis(m)": 6931778.249405717,
        "Time(s)": 320
    },
    {
        "Altitude(m)": 555808.0147847268,
        "Argument of Periapsis(deg)": 0.011503089823870818,
        "Eccentricity": 0.0,
        "Inclination(deg)": 53.0,
        "Latitude(deg)": 34.32654623164227,
        "Longitude(deg)": 122.8555664538631,
        "Mean Anomaly(deg)": 135.23092971737157,
        "RAAN(deg)": 74.9828805874434,
        "Satellite Name": "Starlink Shell 1 337",
        "Satellite Number": 337,
        "Semi-Major Axis(m)": 6931778.249405717,
        "Time(s)": 330
    },
    {
        "Altitude(m)": 555727.3760487469,
        "Argument of Periapsis(deg)": 0.011851668303382053,
        "Eccentricity": 0.0,
        "Inclination(deg)": 53.0,
        "Latitude(deg)": 33.893575428234456,
        "Longitude(deg)": 123.3626498234858,
        "Mean Anomaly(deg)": 135.8577609209283,
        "RAAN(deg)": 74.98236181736593,
        "Satellite Name": "Starlink Shell 1 337",
        "Satellite Number": 337,
        "Semi-Major Axis(m)": 6931778.249405717,
        "Time(s)": 340
    },
    {
        "Altitude(m)": 555647.3180070056,
        "Argument of Periapsis(deg)": 0.012200246782893292,
        "Eccentricity": 0.0,
        "Inclination(deg)": 53.0,
        "Latitude(deg)": 33.45815763692497,
        "Longitude(deg)": 123.86420883226188,
        "Mean Anomaly(deg)": 136.48459212448503,
        "RAAN(deg)": 74.98184304728845,
        "Satellite Name": "Starlink Shell 1 337",
        "Satellite Number": 337,
        "Semi-Major Axis(m)": 6931778.249405717,
        "Time(s)": 350
    },
    {
        "Altitude(m)": 555567.8961911495,
        "Argument of Periapsis(deg)": 0.012548825262404526,
        "Eccentricity": 0.0,
        "Inclination(deg)": 53.0,
        "Latitude(deg)": 33.02035576649482,
        "Longitude(deg)": 124.36035879157191,
        "Mean Anomaly(deg)": 137.11142332804178,
        "RAAN(deg)": 74.98132427721099,
        "Satellite Name": "Starlink Shell 1 337",
        "Satellite Number": 337,
        "Semi-Major Axis(m)": 6931778.249405717,
        "Time(s)": 360
    },
    {
        "Altitude(m)": 555489.1660149957,
        "Argument of Periapsis(deg)": 0.012897403741915765,
        "Eccentricity": 0.0,
        "Inclination(deg)": 53.0,
        "Latitude(deg)": 32.580231304257424,
        "Longitude(deg)": 124.8512134812591,
        "Mean Anomaly(deg)": 137.73825453159847,
        "RAAN(deg)": 74.98080550713351,
        "Satellite Name": "Starlink Shell 1 337",
        "Satellite Number": 337,
        "Semi-Major Axis(m)": 6931778.249405717,
        "Time(s)": 370
    }
]